{
  "type": "FeatureCollection",
  "features": [
    {
      "type": "Feature",
      "properties": {
        "norad_id": 22675,
        "name": "COSMOS 2251",
        "group": "cosmos-2251-debris",
        "lat": 62.67428955264861,
        "lon": 110.62018416443945,
        "alt_km": 767.193999009437,
        "timestamp": "2025-12-08T03:50:07.388436+00:00",
        "meta_object_name": "COSMOS 2251",
        "meta_object_id": "1993-036A",
        "meta_epoch": "2025-12-07T05:32:12.030720",
        "meta_mean_motion": 14.33202156,
        "meta_eccentricity": 0.00237896,
        "meta_inclination": 74.0393,
        "meta_ra_of_asc_node": 325.9499,
        "meta_arg_of_pericenter": 49.9401,
        "meta_mean_anomaly": 310.3831,
        "meta_ephemeris_type": 0,
        "meta_classification_type": "U",
        "meta_norad_cat_id": 22675,
        "meta_element_set_no": 999,
        "meta_rev_at_epoch": 69694,
        "meta_bstar": 9.5135957e-05,
        "meta_mean_motion_dot": 2.36e-06,
        "meta_mean_motion_ddot": 0,
        "tle_line1": "1 22675U 93036A   25341.23069480  .00000236  00000+0  95136-4 0  9998",
        "tle_line2": "2 22675  74.0393 325.9499 0023789  49.9401 310.3831 14.33202156696947"
      },
      "geometry": {
        "type": "Point",
        "coordinates": [
          110.62018416443945,
          62.67428955264861
        ]
      }
    },
    {
      "type": "Feature",
      "properties": {
        "norad_id": 33757,
        "name": "COSMOS 2251 DEB",
        "group": "cosmos-2251-debris",
        "lat": 17.866866034860184,
        "lon": 146.67819681434193,
        "alt_km": 793.8796047786145,
        "timestamp": "2025-12-08T03:50:07.388459+00:00",
        "meta_object_name": "COSMOS 2251 DEB",
        "meta_object_id": "1993-036E",
        "meta_epoch": "2025-12-07T00:33:28.348992",
        "meta_mean_motion": 14.32578712,
        "meta_eccentricity": 0.0015039,
        "meta_inclination": 74.0366,
        "meta_ra_of_asc_node": 334.0464,
        "meta_arg_of_pericenter": 348.4109,
        "meta_mean_anomaly": 73.6307,
        "meta_ephemeris_type": 0,
        "meta_classification_type": "U",
        "meta_norad_cat_id": 33757,
        "meta_element_set_no": 999,
        "meta_rev_at_epoch": 87914,
        "meta_bstar": 7.6061625e-05,
        "meta_mean_motion_dot": 1.81e-06,
        "meta_mean_motion_ddot": 0,
        "tle_line1": "1 33757U 93036E   25341.02324478  .00000181  00000+0  76062-4 0  9995",
        "tle_line2": "2 33757  74.0366 334.0464 0015039 348.4109  73.6307 14.32578712879149"
      },
      "geometry": {
        "type": "Point",
        "coordinates": [
          146.67819681434193,
          17.866866034860184
        ]
      }
    },
    {
      "type": "Feature",
      "properties": {
        "norad_id": 33758,
        "name": "COSMOS 2251 DEB",
        "group": "cosmos-2251-debris",
        "lat": 25.100382121747046,
        "lon": 35.94653330889881,
        "alt_km": 728.547026512395,
        "timestamp": "2025-12-08T03:50:07.388473+00:00",
        "meta_object_name": "COSMOS 2251 DEB",
        "meta_object_id": "1993-036F",
        "meta_epoch": "2025-12-07T03:00:32.412096",
        "meta_mean_motion": 14.51542303,
        "meta_eccentricity": 0.00175206,
        "meta_inclination": 74.0281,
        "meta_ra_of_asc_node": 225.6042,
        "meta_arg_of_pericenter": 292.8033,
        "meta_mean_anomaly": 217.7515,
        "meta_ephemeris_type": 0,
        "meta_classification_type": "U",
        "meta_norad_cat_id": 33758,
        "meta_element_set_no": 999,
        "meta_rev_at_epoch": 88223,
        "meta_bstar": 0.0013638613,
        "meta_mean_motion_dot": 5.444e-05,
        "meta_mean_motion_ddot": 0,
        "tle_line1": "1 33758U 93036F   25341.12537514  .00005444  00000+0  13639-2 0  9990",
        "tle_line2": "2 33758  74.0281 225.6042 0017520 292.8033 217.7515 14.51542303882232"
      },
      "geometry": {
        "type": "Point",
        "coordinates": [
          35.94653330889881,
          25.100382121747046
        ]
      }
    },
    {
      "type": "Feature",
      "properties": {
        "norad_id": 33760,
        "name": "COSMOS 2251 DEB",
        "group": "cosmos-2251-debris",
        "lat": -2.5080134674099064,
        "lon": -70.85607531413031,
        "alt_km": 763.8658742209045,
        "timestamp": "2025-12-08T03:50:07.388485+00:00",
        "meta_object_name": "COSMOS 2251 DEB",
        "meta_object_id": "1993-036H",
        "meta_epoch": "2025-12-06T23:43:32.234592",
        "meta_mean_motion": 14.35666432,
        "meta_eccentricity": 0.00196355,
        "meta_inclination": 74.0318,
        "meta_ra_of_asc_node": 292.0112,
        "meta_arg_of_pericenter": 31.9627,
        "meta_mean_anomaly": 34.6564,
        "meta_ephemeris_type": 0,
        "meta_classification_type": "U",
        "meta_norad_cat_id": 33760,
        "meta_element_set_no": 999,
        "meta_rev_at_epoch": 88042,
        "meta_bstar": 0.00020665699,
        "meta_mean_motion_dot": 5.72e-06,
        "meta_mean_motion_ddot": 0,
        "tle_line1": "1 33760U 93036H   25340.98856753  .00000572  00000+0  20666-3 0  9991",
        "tle_line2": "2 33760  74.0318 292.0112 0019635  31.9627  34.6564 14.35666432880423"
      },
      "geometry": {
        "type": "Point",
        "coordinates": [
          -70.85607531413031,
          -2.5080134674099064
        ]
      }
    },
    {
      "type": "Feature",
      "properties": {
        "norad_id": 33761,
        "name": "COSMOS 2251 DEB",
        "group": "cosmos-2251-debris",
        "lat": 6.336344438488585,
        "lon": 78.83913218558565,
        "alt_km": 767.8828270965705,
        "timestamp": "2025-12-08T03:50:07.388498+00:00",
        "meta_object_name": "COSMOS 2251 DEB",
        "meta_object_id": "1993-036J",
        "meta_epoch": "2025-12-06T21:22:04.592352",
        "meta_mean_motion": 14.42516969,
        "meta_eccentricity": 0.00228744,
        "meta_inclination": 74.037,
        "meta_ra_of_asc_node": 263.0147,
        "meta_arg_of_pericenter": 344.1337,
        "meta_mean_anomaly": 79.3928,
        "meta_ephemeris_type": 0,
        "meta_classification_type": "U",
        "meta_norad_cat_id": 33761,
        "meta_element_set_no": 999,
        "meta_rev_at_epoch": 88150,
        "meta_bstar": 0.00097592114,
        "meta_mean_motion_dot": 3.221e-05,
        "meta_mean_motion_ddot": 0,
        "tle_line1": "1 33761U 93036J   25340.89033093  .00003221  00000+0  97592-3 0  9992",
        "tle_line2": "2 33761  74.0370 263.0147 0022874 344.1337  79.3928 14.42516969881501"
      },
      "geometry": {
        "type": "Point",
        "coordinates": [
          78.83913218558565,
          6.336344438488585
        ]
      }
    },
    {
      "type": "Feature",
      "properties": {
        "norad_id": 33762,
        "name": "COSMOS 2251 DEB",
        "group": "cosmos-2251-debris",
        "lat": -30.232792836914772,
        "lon": -51.198237415467496,
        "alt_km": 778.7040252646129,
        "timestamp": "2025-12-08T03:50:07.388510+00:00",
        "meta_object_name": "COSMOS 2251 DEB",
        "meta_object_id": "1993-036K",
        "meta_epoch": "2025-12-06T23:46:14.822976",
        "meta_mean_motion": 14.33660922,
        "meta_eccentricity": 0.00147765,
        "meta_inclination": 74.0413,
        "meta_ra_of_asc_node": 320.5384,
        "meta_arg_of_pericenter": 23.7006,
        "meta_mean_anomaly": 32.1082,
        "meta_ephemeris_type": 0,
        "meta_classification_type": "U",
        "meta_norad_cat_id": 33762,
        "meta_element_set_no": 999,
        "meta_rev_at_epoch": 87965,
        "meta_bstar": 9.0005473e-05,
        "meta_mean_motion_dot": 2.24e-06,
        "meta_mean_motion_ddot": 0,
        "tle_line1": "1 33762U 93036K   25340.99044934  .00000224  00000+0  90005-4 0  9993",
        "tle_line2": "2 33762  74.0413 320.5384 0014776  23.7006  32.1082 14.33660922879657"
      },
      "geometry": {
        "type": "Point",
        "coordinates": [
          -51.198237415467496,
          -30.232792836914772
        ]
      }
    },
    {
      "type": "Feature",
      "properties": {
        "norad_id": 33764,
        "name": "COSMOS 2251 DEB",
        "group": "cosmos-2251-debris",
        "lat": 11.86253263595121,
        "lon": -75.4379416436404,
        "alt_km": 770.9416988763469,
        "timestamp": "2025-12-08T03:50:07.388521+00:00",
        "meta_object_name": "COSMOS 2251 DEB",
        "meta_object_id": "1993-036M",
        "meta_epoch": "2025-12-07T06:25:40.283040",
        "meta_mean_motion": 14.39492056,
        "meta_eccentricity": 0.00241577,
        "meta_inclination": 74.0345,
        "meta_ra_of_asc_node": 282.7609,
        "meta_arg_of_pericenter": 249.459,
        "meta_mean_anomaly": 182.2338,
        "meta_ephemeris_type": 0,
        "meta_classification_type": "U",
        "meta_norad_cat_id": 33764,
        "meta_element_set_no": 999,
        "meta_rev_at_epoch": 88078,
        "meta_bstar": 0.0006784762,
        "meta_mean_motion_dot": 2.096e-05,
        "meta_mean_motion_ddot": 0,
        "tle_line1": "1 33764U 93036M   25341.26782735  .00002096  00000+0  67848-3 0  9991",
        "tle_line2": "2 33764  74.0345 282.7609 0024157 249.4590 182.2338 14.39492056880785"
      },
      "geometry": {
        "type": "Point",
        "coordinates": [
          -75.4379416436404,
          11.86253263595121
        ]
      }
    }
  ]
}